CCSDS_OMM_VERS,COMMENT,CREATION_DATE,ORIGINATOR,OBJECT_NAME,OBJECT_ID,CENTER_NAME,REF_FRAME,TIME_SYSTEM,MEAN_ELEMENT_THEORY,EPOCH,MEAN_MOTION,ECCENTRICITY,INCLINATION,RA_OF_ASC_NODE,ARG_OF_PERICENTER,MEAN_ANOMALY,EPHEMERIS_TYPE,CLASSIFICATION_TYPE,NORAD_CAT_ID,ELEMENT_SET_NO,REV_AT_EPOCH,BSTAR,MEAN_MOTION_DOT,MEAN_MOTION_DDOT,SEMIMAJOR_AXIS,PERIOD,APOAPSIS,PERIAPSIS,OBJECT_TYPE,RCS_SIZE,COUNTRY_CODE,LAUNCH_DATE,SITE,DECAY_DATE,FILE,GP_ID,TLE_LINE0,TLE_LINE1,TLE_LINE2,norad_id
3.0,GENERATED VIA SPACE-TRACK.ORG API,2026-05-20T11:06:57,18 SPCS,BEIDOU 3M12,2018-067B,EARTH,TEME,UTC,SGP4,2026-05-20 02:55:55.302240+00:00,1.86227273,0.00043774,54.1757,181.9561,15.9012,344.1863,0,U,43603,999,5262,0.00000000000000,0.00000044,0.0000000000000,27906.561,773.249,21540.642,21516.210,PAYLOAD,LARGE,PRC,2018-08-24,XSC,,5206425,323941254,0 BEIDOU 3M12,1 43603U 18067B   26140.12216785  .00000044  00000-0  00000-0 0  9991,2 43603  54.1757 181.9561 0004377  15.9012 344.1863  1.86227273 52629,43603
3.0,GENERATED VIA SPACE-TRACK.ORG API,2026-05-21T10:54:40,18 SPCS,BEIDOU 3M12,2018-067B,EARTH,TEME,UTC,SGP4,2026-05-21 04:42:21.331872+00:00,1.86227230,0.00043998,54.1757,181.9195,15.6107,344.4705,0,U,43603,999,5264,0.00000000000000,0.00000036,0.0000000000000,27906.565,773.249,21540.708,21516.152,PAYLOAD,LARGE,PRC,2018-08-24,XSC,,5207355,324061798,0 BEIDOU 3M12,1 43603U 18067B   26141.19608023  .00000036  00000-0  00000-0 0  9990,2 43603  54.1757 181.9195 0004400  15.6107 344.4705  1.86227230 52644,43603
3.0,GENERATED VIA SPACE-TRACK.ORG API,2026-05-22T22:26:34,18 SPCS,BEIDOU 3M12,2018-067B,EARTH,TEME,UTC,SGP4,2026-05-22 06:28:47.752896+00:00,1.86227181,0.00044330,54.1757,181.8830,15.0735,345.0038,0,U,43603,999,5266,0.00000000000000,0.00000035,0.0000000000000,27906.570,773.249,21540.806,21516.064,PAYLOAD,LARGE,PRC,2018-08-24,XSC,,5209282,324392258,0 BEIDOU 3M12,1 43603U 18067B   26142.26999714  .00000035  00000-0  00000+0 0  9997,2 43603  54.1757 181.8830 0004433  15.0735 345.0038  1.86227181 52669,43603
3.0,GENERATED VIA SPACE-TRACK.ORG API,2026-05-22T17:40:47,18 SPCS,BEIDOU 3M12,2018-067B,EARTH,TEME,UTC,SGP4,2026-05-22 06:28:47.753760+00:00,1.86227181,0.00044327,54.1757,181.8830,15.0735,345.0038,0,U,43603,999,5266,0.00000000000000,0.00000035,0.0000000000000,27906.570,773.249,21540.805,21516.065,PAYLOAD,LARGE,PRC,2018-08-24,XSC,,5208788,324326001,0 BEIDOU 3M12,1 43603U 18067B   26142.26999715  .00000035  00000-0  00000-0 0  9999,2 43603  54.1757 181.8830 0004433  15.0735 345.0038  1.86227181 52669,43603
3.0,GENERATED VIA SPACE-TRACK.ORG API,2026-05-22T10:14:49,18 SPCS,BEIDOU 3M12,2018-067B,EARTH,TEME,UTC,SGP4,2026-05-22 06:28:47.763264+00:00,1.86227180,0.00044392,54.1757,181.8830,15.1734,344.9041,0,U,43603,999,5266,0.00000000000000,0.00000035,0.0000000000000,27906.570,773.249,21540.824,21516.047,PAYLOAD,LARGE,PRC,2018-08-24,XSC,,5208768,324291297,0 BEIDOU 3M12,1 43603U 18067B   26142.26999726  .00000035  00000-0  00000-0 0  9991,2 43603  54.1757 181.8830 0004439  15.1734 344.9041  1.86227180 52666,43603
3.0,GENERATED VIA SPACE-TRACK.ORG API,2026-05-23T17:30:58,18 SPCS,BEIDOU 3M12,2018-067B,EARTH,TEME,UTC,SGP4,2026-05-22 06:28:47.824608+00:00,1.86227146,0.00044575,54.1758,181.8829,15.1128,344.9647,0,U,43603,999,5266,0.00000000000000,0.00000035,0.0000000000000,27906.574,773.249,21540.878,21515.999,PAYLOAD,LARGE,PRC,2018-08-24,XSC,,5210736,324548466,0 BEIDOU 3M12,1 43603U 18067B   26142.26999797  .00000035  00000-0  00000-0 0  9999,2 43603  54.1758 181.8829 0004458  15.1128 344.9647  1.86227146 52667,43603
3.0,GENERATED VIA SPACE-TRACK.ORG API,2026-05-25T04:06:45,18 SPCS,BEIDOU 3M12,2018-067B,EARTH,TEME,UTC,SGP4,2026-05-22 19:22:01.149600+00:00,1.86227142,0.00044605,54.1759,181.8646,15.0351,345.0417,0,U,43603,999,5267,0.00000000000000,0.00000038,0.0000000000000,27906.574,773.249,21540.887,21515.991,PAYLOAD,LARGE,PRC,2018-08-24,XSC,,5212715,324761162,0 BEIDOU 3M12,1 43603U 18067B   26142.80695775  .00000038  00000-0  00000-0 0  9991,2 43603  54.1759 181.8646 0004460  15.0351 345.0417  1.86227142 52679,43603
3.0,GENERATED VIA SPACE-TRACK.ORG API,2026-05-27T02:28:57,18 SPCS,BEIDOU 3M12,2018-067B,EARTH,TEME,UTC,SGP4,2026-05-26 13:34:36.176736+00:00,1.86227139,0.00044782,54.1759,181.7371,15.1856,344.9017,0,U,43603,999,5274,0.00000000000000,0.00000083,0.0000000000000,27906.574,773.249,21540.936,21515.942,PAYLOAD,LARGE,PRC,2018-08-24,XSC,,5214677,325069617,0 BEIDOU 3M12,1 43603U 18067B   26146.56569649  .00000083  00000-0  00000-0 0  9998,2 43603  54.1759 181.7371 0004478  15.1856 344.9017  1.86227139 52741,43603
3.0,GENERATED VIA SPACE-TRACK.ORG API,2026-05-27T10:30:52,18 SPCS,BEIDOU 3M12,2018-067B,EARTH,TEME,UTC,SGP4,2026-05-27 02:27:49.597632+00:00,1.86227196,0.00044843,54.1759,181.7187,14.6553,345.4333,0,U,43603,999,5275,0.00000000000000,0.00000087,0.0000000000000,27906.569,773.249,21540.948,21515.920,PAYLOAD,LARGE,PRC,2018-08-24,XSC,,5215548,325183672,0 BEIDOU 3M12,1 43603U 18067B   26147.10265738  .00000087  00000-0  00000-0 0  9995,2 43603  54.1759 181.7187 0004484  14.6553 345.4333  1.86227196 52752,43603
3.0,GENERATED VIA SPACE-TRACK.ORG API,2026-05-28T10:52:39,18 SPCS,BEIDOU 3M12,2018-067B,EARTH,TEME,UTC,SGP4,2026-05-28 04:14:16.537056+00:00,1.86227234,0.00045050,54.1760,181.6822,14.1321,345.9588,0,U,43603,999,5277,0.00000000000000,0.00000092,0.0000000000000,27906.565,773.249,21541.002,21515.858,PAYLOAD,LARGE,PRC,2018-08-24,XSC,,5218154,325527397,0 BEIDOU 3M12,1 43603U 18067B   26148.17658029  .00000092  00000-0  00000-0 0  9998,2 43603  54.1760 181.6822 0004505  14.1321 345.9588  1.86227234 52773,43603
3.0,GENERATED VIA SPACE-TRACK.ORG API,2026-05-30T07:26:56,18 SPCS,BEIDOU 3M12,2018-067B,EARTH,TEME,UTC,SGP4,2026-05-29 18:53:56.605344+00:00,1.86227256,0.00045170,54.1762,181.6275,14.2309,345.8603,0,U,43603,999,5280,0.00000000000000,0.00000089,0.0000000000000,27906.563,773.249,21541.033,21515.822,PAYLOAD,LARGE,PRC,2018-08-24,XSC,,5221707,325911206,0 BEIDOU 3M12,1 43603U 18067B   26149.78746071  .00000089  00000-0  00000+0 0  9996,2 43603  54.1762 181.6275 0004517  14.2309 345.8603  1.86227256 52802,43603
3.0,GENERATED VIA SPACE-TRACK.ORG API,2026-05-30T07:49:03,18 SPCS,BEIDOU 3M12,2018-067B,EARTH,TEME,UTC,SGP4,2026-05-29 18:53:56.606208+00:00,1.86227256,0.00045166,54.1762,181.6276,14.2309,345.8603,0,U,43603,999,5280,0.00000000000000,0.00000089,0.0000000000000,27906.563,773.249,21541.032,21515.823,PAYLOAD,LARGE,PRC,2018-08-24,XSC,,5222214,325976427,0 BEIDOU 3M12,1 43603U 18067B   26149.78746072  .00000089  00000-0  00000-0 0  9998,2 43603  54.1762 181.6276 0004517  14.2309 345.8603  1.86227256 52803,43603
3.0,GENERATED VIA SPACE-TRACK.ORG API,2026-05-31T06:06:41,18 SPCS,BEIDOU 3M12,2018-067B,EARTH,TEME,UTC,SGP4,2026-05-30 07:47:09.749760+00:00,1.86227292,0.00045089,54.1764,181.6095,14.1807,345.9095,0,U,43603,999,5281,0.00000000000000,0.00000086,0.0000000000000,27906.559,773.249,21541.007,21515.841,PAYLOAD,LARGE,PRC,2018-08-24,XSC,,5223946,326205404,0 BEIDOU 3M12,1 43603U 18067B   26150.32441840  .00000086  00000-0  00000-0 0  9992,2 43603  54.1764 181.6095 0004509  14.1807 345.9095  1.86227292 52814,43603
3.0,GENERATED VIA SPACE-TRACK.ORG API,2026-05-30T16:46:26,18 SPCS,BEIDOU 3M12,2018-067B,EARTH,TEME,UTC,SGP4,2026-05-30 07:47:09.777408+00:00,1.86227271,0.00045040,54.1763,181.6094,14.2183,345.8720,0,U,43603,999,5281,0.00000000000000,0.00000086,0.0000000000000,27906.561,773.249,21540.995,21515.857,PAYLOAD,LARGE,PRC,2018-08-24,XSC,,5222570,326021470,0 BEIDOU 3M12,1 43603U 18067B   26150.32441872  .00000086  00000-0  00000+0 0  9996,2 43603  54.1763 181.6094 0004504  14.2183 345.8720  1.86227271 52816,43603
3.0,GENERATED VIA SPACE-TRACK.ORG API,2026-05-30T21:02:43,18 SPCS,BEIDOU 3M12,2018-067B,EARTH,TEME,UTC,SGP4,2026-05-30 07:47:09.778272+00:00,1.86227271,0.00045036,54.1763,181.6094,14.2183,345.8720,0,U,43603,999,5281,0.00000000000000,0.00000086,0.0000000000000,27906.561,773.249,21540.994,21515.858,PAYLOAD,LARGE,PRC,2018-08-24,XSC,,5223167,326096712,0 BEIDOU 3M12,1 43603U 18067B   26150.32441873  .00000086  00000-0  00000-0 0  9998,2 43603  54.1763 181.6094 0004504  14.2183 345.8720  1.86227271 52816,43603
3.0,GENERATED VIA SPACE-TRACK.ORG API,2026-06-02T10:48:41,18 SPCS,BEIDOU 3M12,2018-067B,EARTH,TEME,UTC,SGP4,2026-06-02 00:13:15.056256+00:00,1.86227328,0.00045093,54.1768,181.5183,14.0640,346.0157,0,U,43603,999,5286,0.00000000000000,0.00000069,0.0000000000000,27906.555,773.248,21541.004,21515.837,PAYLOAD,LARGE,PRC,2018-08-24,XSC,,5227273,326642575,0 BEIDOU 3M12,1 43603U 18067B   26153.00920204  .00000069  00000-0  00000-0 0  9997,2 43603  54.1768 181.5183 0004509  14.0640 346.0157  1.86227328 52865,43603
3.0,GENERATED VIA SPACE-TRACK.ORG API,2026-06-03T21:59:02,18 SPCS,BEIDOU 3M12,2018-067B,EARTH,TEME,UTC,SGP4,2026-06-03 01:59:40.939872+00:00,1.86227368,0.00044864,54.1770,181.4820,14.1866,345.8879,0,U,43603,999,5288,0.00000000000000,0.00000067,0.0000000000000,27906.551,773.248,21540.937,21515.896,PAYLOAD,LARGE,PRC,2018-08-24,XSC,,5228922,326927599,0 BEIDOU 3M12,1 43603U 18067B   26154.08311273  .00000067  00000-0  00000-0 0  9994,2 43603  54.1770 181.4820 0004486  14.1866 345.8879  1.86227368 52884,43603
3.0,GENERATED VIA SPACE-TRACK.ORG API,2026-06-04T04:32:25,18 SPCS,BEIDOU 3M12,2018-067B,EARTH,TEME,UTC,SGP4,2026-06-03 14:52:53.953824+00:00,1.86227374,0.00044862,54.1771,181.4639,14.2691,345.8030,0,U,43603,999,5289,0.00000000000000,0.00000068,0.0000000000000,27906.551,773.248,21540.935,21515.896,PAYLOAD,LARGE,PRC,2018-08-24,XSC,,5229409,327006738,0 BEIDOU 3M12,1 43603U 18067B   26154.62006891  .00000068  00000-0  00000-0 0  9992,2 43603  54.1771 181.4639 0004486  14.2691 345.8030  1.86227374 52897,43603
